[{"OBJECT_NAME":"WEILAI 1R","OBJECT_ID":"2019-093F","EPOCH":"2026-03-09T22:33:48.244608","MEAN_MOTION":14.997592,"ECCENTRICITY":0.00116762,"INCLINATION":97.7939,"RA_OF_ASC_NODE":158.7373,"ARG_OF_PERICENTER":23.5076,"MEAN_ANOMALY":336.6679,"EPHEMERIS_TYPE":0,"CLASSIFICATION_TYPE":"U","NORAD_CAT_ID":44884,"ELEMENT_SET_NO":999,"REV_AT_EPOCH":33754,"BSTAR":0.00050142794,"MEAN_MOTION_DOT":6.146e-5,"MEAN_MOTION_DDOT":0},{"OBJECT_NAME":"STARLINK-5289","OBJECT_ID":"2023-010K","EPOCH":"2026-03-09T22:19:21.404640","MEAN_MOTION":14.98336568,"ECCENTRICITY":0.00029853,"INCLINATION":70.0002,"RA_OF_ASC_NODE":43.7827,"ARG_OF_PERICENTER":267.5214,"MEAN_ANOMALY":92.5603,"EPHEMERIS_TYPE":0,"CLASSIFICATION_TYPE":"U","NORAD_CAT_ID":55278,"ELEMENT_SET_NO":999,"REV_AT_EPOCH":17281,"BSTAR":6.7435226e-5,"MEAN_MOTION_DOT":7.12e-6,"MEAN_MOTION_DDOT":0}]
